ISS (ZARYA)             
1 25544U 98067A   25326.28671477  .00015903  00000+0  29634-3 0  9994
2 25544  51.6321 243.7129 0003928 154.7163 205.4018 15.48986583539685
CSS (TIANHE)            
1 48274U 21035A   25326.40309895  .00021722  00000+0  26989-3 0  9992
2 48274  41.4655 140.0755 0007784 217.1176 142.9125 15.59436574260859
ISS (NAUKA)             
1 49044U 21066A   25324.86734766  .00014275  00000+0  26737-3 0  9995
2 49044  51.6324 250.7347 0003960 150.1460 209.9755 15.48935269230449
CSS (WENTIAN)           
1 53239U 22085A   25324.86605360  .00019378  00000+0  24199-3 0  9994
2 53239  41.4654 149.4104 0007539 206.0978 153.9481 15.59361906173846
CSS (MENGTIAN)          
1 54216U 22143A   25324.86605360  .00019378  00000+0  24199-3 0  9995
2 54216  41.4654 149.4104 0007539 206.0978 153.9481 15.59361906158643
SOYUZ-MS 27             
1 63520U 25072A   25324.86734766  .00014275  00000+0  26737-3 0  9991
2 63520  51.6324 250.7347 0003960 150.1460 209.9755 15.48935269 20205
SHENZHOU-20 (SZ-20)     
1 63632U 25082A   25324.86605360  .00019378  00000+0  24199-3 0  9992
2 63632  41.4654 149.4104 0007539 206.0978 153.9481 15.59361906255306
PROGRESS-MS 31          
1 64751U 25146A   25324.86734766  .00014275  00000+0  26737-3 0  9990
2 64751  51.6324 250.7347 0003960 150.1460 209.9755 15.48935269  6756
TIANZHOU-9              
1 64786U 25149A   25324.86605360  .00019378  00000+0  24199-3 0  9997
2 64786  41.4654 149.4104 0007539 206.0978 153.9481 15.59361906255307
CREW DRAGON 11          
1 65077U 25166A   25324.86734766  .00014275  00000+0  26737-3 0  9994
2 65077  51.6324 250.7347 0003960 150.1460 209.9755 15.48935269  2147
DRAGON CRS-33           
1 65304U 25186A   25324.86734766  .00014275  00000+0  26737-3 0  9999
2 65304  51.6324 250.7347 0003960 150.1460 209.9755 15.48935269   115
